     2.100          NAVIGATION                              RINEX VERSION / TYPE
fic2rin                                 01/25/2012 00:07:05 PGM / RUN BY / DATE
                                                            END OF HEADER
22 12  1 24 16  0  0.0  .142978504300D-03  .113686837722D-12  .000000000000D+00
     .480000000000D+02 -.237500000000D+02  .591560355149D-08  .768473985980D+00
    -.116601586342D-05  .571627099998D-02  .418536365032D-05  .515368524551D+04
     .230400000000D+06 -.130385160446D-07  .208941673902D+01  .707805156708D-07
     .928050476913D+00  .283468750000D+03 -.199130366277D+01 -.892572893529D-08
    -.295726603914D-09  .100000000000D+01  .167200000000D+04  .000000000000D+00
     .240000000000D+01  .000000000000D+00 -.167638063431D-07  .480000000000D+02
     .223206000000D+06  .400000000000D+01
23 12  1 24 16  0  0.0  .239089597017D-03 -.329691829393D-11  .000000000000D+00
     .100000000000D+02  .217500000000D+02  .422731894194D-08 -.109933123266D+01
     .935047864914D-06  .753167527728D-02  .118091702461D-04  .515368299866D+04
     .230400000000D+06  .838190317154D-07  .313424060518D+01 -.135973095894D-06
     .962001012186D+00  .152531250000D+03 -.302789089346D+01 -.775568019807D-08
    -.420731810883D-09  .100000000000D+01  .167200000000D+04  .000000000000D+00
     .240000000000D+01  .000000000000D+00 -.204890966415D-07  .100000000000D+02
     .223206000000D+06  .400000000000D+01
25 12  1 24 16  0  0.0  .312551856041D-04  .227373675443D-12  .000000000000D+00
     .820000000000D+02 -.365625000000D+02  .467912347570D-08  .221264705221D+01
    -.185146927834D-05  .112676457502D-02  .122375786304D-05  .515376580811D+04
     .230400000000D+06  .745058059692D-08 -.107822751877D+01  .279396772385D-07
     .966919391045D+00  .357468750000D+03  .683083943382D+00 -.848213902942D-08
    -.735744932444D-10  .100000000000D+01  .167200000000D+04  .000000000000D+00
     .240000000000D+01  .000000000000D+00  .512227416039D-08  .820000000000D+02
     .223206000000D+06  .400000000000D+01
26 12  1 24 16  0  0.0 -.311267562211D-03 -.144382283906D-10  .000000000000D+00
     .440000000000D+02  .260000000000D+02  .373551274196D-08 -.122999602385D+01
     .150315463543D-05  .206661634147D-01  .125654041767D-04  .515365641785D+04
     .230400000000D+06  .229105353355D-06 -.307891504469D+01  .465661287308D-06
     .985099245178D+00  .148937500000D+03  .116849563976D+01 -.761067415798D-08
    -.511449875369D-09  .100000000000D+01  .167200000000D+04  .000000000000D+00
     .240000000000D+01  .000000000000D+00 -.605359673500D-08  .440000000000D+02
     .223206000000D+06  .400000000000D+01
27 12  1 24 16  0  0.0  .349609181285D-03  .386535248253D-11  .000000000000D+00
     .590000000000D+02  .108093750000D+03  .398552315589D-08 -.273047265080D+00
     .567547976971D-05  .219528140733D-01  .811368227005D-05  .515355533218D+04
     .230400000000D+06 -.381842255592D-06 -.215513272636D+01 -.230967998505D-06
     .981836282474D+00  .240656250000D+03 -.113682438937D+01 -.820177020808D-08
     .442875590403D-09  .100000000000D+01  .167200000000D+04  .000000000000D+00
     .485000000000D+01  .000000000000D+00 -.419095158577D-08  .590000000000D+02
     .223206000000D+06  .400000000000D+01
28 12  1 24 16  0  0.0  .105880666524D-03  .375166564481D-11  .000000000000D+00
     .320000000000D+02 -.557500000000D+02  .457447625958D-08  .756544595633D+00
    -.294856727123D-05  .178474502172D-01  .256113708019D-05  .515370338631D+04
     .230400000000D+06 -.271946191788D-06 -.102059400313D+01 -.167638063431D-07
     .977345767654D+00  .342875000000D+03 -.185057097134D+01 -.866214652746D-08
    -.308941440080D-09  .100000000000D+01  .167200000000D+04  .000000000000D+00
     .240000000000D+01  .000000000000D+00 -.107102096081D-07  .320000000000D+02
     .223206000000D+06  .400000000000D+01
29 12  1 24 16  0  0.0  .278192106634D-03  .352429196937D-11  .000000000000D+00
     .410000000000D+02 -.101000000000D+03  .418553148704D-08  .294407365456D+01
    -.542029738426D-05  .218653015327D-02  .110473483801D-04  .515365388680D+04
     .230400000000D+06  .204890966415D-07  .221723989523D-01  .558793544769D-08
     .963318760516D+00  .166656250000D+03 -.119759857068D+01 -.779461039110D-08
    -.357157734196D-10  .100000000000D+01  .167200000000D+04  .000000000000D+00
     .240000000000D+01  .000000000000D+00 -.931322574615D-08  .410000000000D+02
     .223206000000D+06  .400000000000D+01
30 12  1 24 16  0  0.0 -.205039978027D-04 -.143245415529D-10  .000000000000D+00
     .950000000000D+02 -.284687500000D+02  .489020369661D-08 -.157645207927D-01
    -.143423676491D-05  .108907005051D-01  .147148966789D-05  .515360825157D+04
     .230400000000D+06 -.141561031342D-06 -.116802154165D+01 -.558793544769D-08
     .958141658743D+00  .350000000000D+03  .155477375310D+01 -.877179395186D-08
    -.417874549009D-10  .100000000000D+01  .167200000000D+04  .000000000000D+00
     .965000000000D+01  .000000000000D+00 -.419095158577D-08  .950000000000D+02
     .223206000000D+06  .400000000000D+01
31 12  1 24 16  0  0.0  .199604779482D-03  .477484718431D-11  .000000000000D+00
     .870000000000D+02  .118000000000D+03  .397123684653D-08 -.268500524321D+01
     .618770718575D-05  .802829826716D-02  .657327473164D-05  .515357868958D+04
     .230400000000D+06  .223517417908D-07 -.209956324916D+01  .968575477600D-07
     .980596223872D+00  .264875000000D+03 -.919040822356D+00 -.783068332225D-08
     .348585948575D-09  .100000000000D+01  .167200000000D+04  .000000000000D+00
     .240000000000D+01  .000000000000D+00 -.130385160446D-07  .870000000000D+02
     .223206000000D+06  .400000000000D+01
10 12  1 24 15 59 44.0 -.267135910690D-04 -.125055521494D-11  .000000000000D+00
     .000000000000D+00 -.200000000000D+02  .548308553538D-08  .112380475054D+01
    -.838190317154D-06  .111379119335D-01  .489316880703D-05  .515365546608D+04
     .230384000000D+06 -.968575477600D-07  .209506304689D+01  .137835741043D-06
     .946500270153D+00  .279500000000D+03  .737346145289D+00 -.866321800066D-08
    -.430732227440D-09  .100000000000D+01  .167200000000D+04  .000000000000D+00
     .240000000000D+01  .000000000000D+00 -.279396772385D-08  .000000000000D+00
     .224766000000D+06  .400000000000D+01
19 12  1 24 15 59 44.0 -.228864140809D-03 -.386535248253D-11  .000000000000D+00
     .100000000000D+01 -.775937500000D+02  .432696594979D-08 -.639456513691D+00
    -.412389636040D-05  .783879274968D-02  .116191804409D-04  .515374647713D+04
     .230384000000D+06  .171363353729D-06  .670112915864D-01 -.391155481339D-07
     .960229149215D+00  .153125000000D+03  .138492037824D+00 -.793318759196D-08
     .607168148133D-11  .100000000000D+01  .167200000000D+04  .000000000000D+00
     .240000000000D+01  .000000000000D+00 -.144354999065D-07  .100000000000D+01
     .226206000000D+06  .400000000000D+01
 1 12  1 24 15 59 12.0  .191134400666D-03  .119371179608D-10  .000000000000D+00
     .130000000000D+02  .504687500000D+02  .468626663039D-08 -.298254854342D+01
     .252574682236D-05  .578956445679D-03  .906176865101D-05  .515365768242D+04
     .230352000000D+06 -.242143869400D-07  .102055090410D+01  .242143869400D-07
     .960003789611D+00  .205093750000D+03  .105809036802D+01 -.804354933183D-08
     .633954978198D-09  .100000000000D+01  .167200000000D+04  .000000000000D+00
     .240000000000D+01  .000000000000D+00  .791624188423D-08  .130000000000D+02
     .227616000000D+06  .400000000000D+01
30 12  1 24 15 59 44.0 -.204993411899D-04 -.142108547152D-10  .000000000000D+00
     .430000000000D+02 -.284687500000D+02  .489020369661D-08 -.180983227821D-01
    -.143423676491D-05  .108906994574D-01  .147148966789D-05  .515360824776D+04
     .230384000000D+06 -.141561031342D-06 -.116802138658D+01 -.558793544769D-08
     .958141658743D+00  .350000000000D+03  .155477372824D+01 -.877179395186D-08
    -.417874549009D-10  .100000000000D+01  .167200000000D+04  .000000000000D+00
     .240000000000D+01  .000000000000D+00 -.419095158577D-08  .430000000000D+02
     .228516000000D+06  .400000000000D+01
 1 12  1 24 17 59 12.0  .191220082343D-03  .119371179608D-10  .000000000000D+00
     .140000000000D+02  .444375000000D+02  .465555106525D-08 -.193105831464D+01
     .225193798542D-05  .578495790251D-03  .924617052078D-05  .515365926170D+04
     .237552000000D+06 -.149011611938D-07  .102049314224D+01 -.149011611938D-07
     .960008213475D+00  .201093750000D+03  .105679174442D+01 -.804712090917D-08
     .602525097589D-09  .100000000000D+01  .167200000000D+04  .000000000000D+00
     .240000000000D+01  .000000000000D+00  .791624188423D-08  .140000000000D+02
     .230406000000D+06  .400000000000D+01
10 12  1 24 17 59 44.0 -.267229042947D-04 -.125055521494D-11  .000000000000D+00
     .800000000000D+01 -.266562500000D+02  .538200989660D-08  .217391776337D+01
    -.149197876453D-05  .111377967987D-01  .482983887196D-05  .515365727234D+04
     .237584000000D+06 -.219792127609D-06  .209500026869D+01 -.171363353729D-06
     .946498662406D+00  .280625000000D+03  .737432039062D+00 -.840677874751D-08
    -.266439669710D-09  .100000000000D+01  .167200000000D+04  .000000000000D+00
     .240000000000D+01  .000000000000D+00 -.279396772385D-08  .800000000000D+01
     .230406000000D+06  .400000000000D+01
19 12  1 24 17 59 44.0 -.228891614825D-03 -.386535248253D-11  .000000000000D+00
     .170000000000D+02 -.836562500000D+02  .424731977506D-08  .410767028450D+00
    -.436045229435D-05  .784096017014D-02  .109225511551D-04  .515375073814D+04
     .237584000000D+06  .134110450745D-06  .669540563795D-01  .577419996262D-07
     .960228969277D+00  .169281250000D+03  .138401291552D+00 -.796497463031D-08
    -.164292557730D-10  .100000000000D+01  .167200000000D+04  .000000000000D+00
     .240000000000D+01  .000000000000D+00 -.144354999065D-07  .170000000000D+02
     .230406000000D+06  .400000000000D+01
